COSMOS 2251 DEB         
1 34129U 93036LA  22244.35957682  .00001286  00000+0  30703-3 0  9991
2 34129  74.0453 116.5081 0048178 147.6447 212.7686 14.54012298437739
